ALOS (DAICHI)           
1 28931U 06002A   26118.87723542  .00001221  00000+0  21215-3 0  9996
2 28931  98.1290  74.6130 0002000 101.3979 258.7451 14.69946369 80857
H-2A R/B                
1 28932U 06002B   26118.67452497  .00008251  00000+0  40184-3 0  9999
2 28932  98.2499 270.0681 0052380  72.1933 288.5003 15.17436067102014
RESURS-DK 1             
1 29228U 06021A   26118.38815535  .00002856  00000+0  16745-3 0  9994
2 29228  69.9312 108.4401 0003531 336.6454  23.4551 15.13000837 95042
CZ-4B R/B               
1 29507U 06046C   26118.73492993  .00005303  00000+0  26490-3 0  9997
2 29507  97.5504 163.4985 0034586  94.2117 266.3070 15.17379716 67634
CZ-2C R/B               
1 31114U 07010B   26118.81598686  .00000113  00000+0  70794-4 0  9992
2 31114  98.4038 229.5962 0059717 147.5996 212.8870 14.20263324986838
COSMO-SKYMED 1          
1 31598U 07023A   26118.80522432  .00003588  00000+0  31813-3 0  9994
2 31598  97.8866 310.2506 0001633  99.3144 260.8262 14.96858430 22404
COSMOS 2428             
1 31792U 07029A   26118.65756771 -.00000183  00000+0 -72653-4 0  9992
2 31792  70.9393  98.4611 0008940 221.1577 138.8871 14.12944613971154
SL-16 R/B               
1 31793U 07029B   26118.82218037  .00000348  00000+0  20483-3 0  9994
2 31793  70.9756  66.9988 0002499 267.8609 105.2035 14.14846858972460
KORONAS-FOTON           
1 33504U 09003A   26118.79657675  .00013609  00000+0  29073-3 0  9999
2 33504  82.4315 223.7323 0009539 339.8519  20.2351 15.44658368953477
CZ-2C R/B               
1 37731U 11030B   26118.86738955  .00001066  00000+0  14019-3 0  9995
2 37731  97.8619  75.1603 0052166 185.4607 229.0947 14.81362181797524
H-2A R/B                
1 38341U 12025E   26118.84841149  .00002590  00000+0  23571-3 0  9992
2 38341  98.4788  89.9496 0044919 147.2725 213.1291 14.95453241755717
SHIJIAN-16 (SJ-16)      
1 39358U 13057A   26118.90538950  .00001596  00000+0  15800-3 0  9998
2 39358  74.9706  90.0105 0016333 344.7914  15.2780 14.92484328678993
SL-4 R/B                
1 39679U 14021B   26118.33500626  .00014576  00000+0  30964-3 0  9992
2 39679  51.6055  94.7742 0092632 284.6433  74.4296 15.40758497663921
ALOS-2                  
1 39766U 14029A   26118.83482557  .00001801  00000+0  24801-3 0  9994
2 39766  97.9203 216.7045 0001690  86.9580 273.1825 14.79473653644281
YAOGAN-29               
1 41038U 15069A   26118.85792784  .00000566  00000+0  76215-4 0  9996
2 41038  98.0075 147.4055 0001931 133.7755 226.3618 14.83044945563316
ASTRO-H (HITOMI)        
1 41337U 16012A   26118.80088456  .00003467  00000+0  20072-3 0  9998
2 41337  31.0002  33.0865 0009370 116.5433 243.6166 15.10293883559819
HXMT (HUIYAN)           
1 42758U 17034A   26118.85848601  .00004444  00000+0  22332-3 0  9999
2 42758  43.0129  97.6178 0031857 194.6947 165.2978 15.18017190490160
