[{"OBJECT_NAME":"ALOS (DAICHI)","OBJECT_ID":"2006-002A","EPOCH":"2026-04-28T21:03:13.140288","MEAN_MOTION":14.69946369,"ECCENTRICITY":0.0002,"INCLINATION":98.129,"RA_OF_ASC_NODE":74.613,"ARG_OF_PERICENTER":101.3979,"MEAN_ANOMALY":258.7451,"EPHEMERIS_TYPE":0,"CLASSIFICATION_TYPE":"U","NORAD_CAT_ID":28931,"ELEMENT_SET_NO":999,"REV_AT_EPOCH":8085,"BSTAR":0.00021215,"MEAN_MOTION_DOT":1.221e-5,"MEAN_MOTION_DDOT":0},{"OBJECT_NAME":"H-2A R/B","OBJECT_ID":"2006-002B","EPOCH":"2026-04-28T16:11:18.957408","MEAN_MOTION":15.17436067,"ECCENTRICITY":0.005238,"INCLINATION":98.2499,"RA_OF_ASC_NODE":270.0681,"ARG_OF_PERICENTER":72.1933,"MEAN_ANOMALY":288.5003,"EPHEMERIS_TYPE":0,"CLASSIFICATION_TYPE":"U","NORAD_CAT_ID":28932,"ELEMENT_SET_NO":999,"REV_AT_EPOCH":10201,"BSTAR":0.00040184,"MEAN_MOTION_DOT":8.251e-5,"MEAN_MOTION_DDOT":0},{"OBJECT_NAME":"RESURS-DK 1","OBJECT_ID":"2006-021A","EPOCH":"2026-04-28T09:18:56.622240","MEAN_MOTION":15.13000837,"ECCENTRICITY":0.0003531,"INCLINATION":69.9312,"RA_OF_ASC_NODE":108.4401,"ARG_OF_PERICENTER":336.6454,"MEAN_ANOMALY":23.4551,"EPHEMERIS_TYPE":0,"CLASSIFICATION_TYPE":"U","NORAD_CAT_ID":29228,"ELEMENT_SET_NO":999,"REV_AT_EPOCH":9504,"BSTAR":0.00016745,"MEAN_MOTION_DOT":2.856e-5,"MEAN_MOTION_DDOT":0},{"OBJECT_NAME":"CZ-4B R/B","OBJECT_ID":"2006-046C","EPOCH":"2026-04-28T17:38:17.945952","MEAN_MOTION":15.17379716,"ECCENTRICITY":0.0034586,"INCLINATION":97.5504,"RA_OF_ASC_NODE":163.4985,"ARG_OF_PERICENTER":94.2117,"MEAN_ANOMALY":266.307,"EPHEMERIS_TYPE":0,"CLASSIFICATION_TYPE":"U","NORAD_CAT_ID":29507,"ELEMENT_SET_NO":999,"REV_AT_EPOCH":6763,"BSTAR":0.0002649,"MEAN_MOTION_DOT":5.303e-5,"MEAN_MOTION_DDOT":0},{"OBJECT_NAME":"CZ-2C R/B","OBJECT_ID":"2007-010B","EPOCH":"2026-04-28T19:35:01.264704","MEAN_MOTION":14.20263324,"ECCENTRICITY":0.0059717,"INCLINATION":98.4038,"RA_OF_ASC_NODE":229.5962,"ARG_OF_PERICENTER":147.5996,"MEAN_ANOMALY":212.887,"EPHEMERIS_TYPE":0,"CLASSIFICATION_TYPE":"U","NORAD_CAT_ID":31114,"ELEMENT_SET_NO":999,"REV_AT_EPOCH":98683,"BSTAR":7.0794e-5,"MEAN_MOTION_DOT":1.13e-6,"MEAN_MOTION_DDOT":0},{"OBJECT_NAME":"COSMO-SKYMED 1","OBJECT_ID":"2007-023A","EPOCH":"2026-04-28T19:19:31.381248","MEAN_MOTION":14.9685843,"ECCENTRICITY":0.0001633,"INCLINATION":97.8866,"RA_OF_ASC_NODE":310.2506,"ARG_OF_PERICENTER":99.3144,"MEAN_ANOMALY":260.8262,"EPHEMERIS_TYPE":0,"CLASSIFICATION_TYPE":"U","NORAD_CAT_ID":31598,"ELEMENT_SET_NO":999,"REV_AT_EPOCH":2240,"BSTAR":0.00031813,"MEAN_MOTION_DOT":3.588e-5,"MEAN_MOTION_DDOT":0},{"OBJECT_NAME":"COSMOS 2428","OBJECT_ID":"2007-029A","EPOCH":"2026-04-28T15:46:53.850144","MEAN_MOTION":14.12944613,"ECCENTRICITY":0.000894,"INCLINATION":70.9393,"RA_OF_ASC_NODE":98.4611,"ARG_OF_PERICENTER":221.1577,"MEAN_ANOMALY":138.8871,"EPHEMERIS_TYPE":0,"CLASSIFICATION_TYPE":"U","NORAD_CAT_ID":31792,"ELEMENT_SET_NO":999,"REV_AT_EPOCH":97115,"BSTAR":-7.2653e-5,"MEAN_MOTION_DOT":-1.83e-6,"MEAN_MOTION_DDOT":0},{"OBJECT_NAME":"SL-16 R/B","OBJECT_ID":"2007-029B","EPOCH":"2026-04-28T19:43:56.383968","MEAN_MOTION":14.14846858,"ECCENTRICITY":0.0002499,"INCLINATION":70.9756,"RA_OF_ASC_NODE":66.9988,"ARG_OF_PERICENTER":267.8609,"MEAN_ANOMALY":105.2035,"EPHEMERIS_TYPE":0,"CLASSIFICATION_TYPE":"U","NORAD_CAT_ID":31793,"ELEMENT_SET_NO":999,"REV_AT_EPOCH":97246,"BSTAR":0.00020483,"MEAN_MOTION_DOT":3.48e-6,"MEAN_MOTION_DDOT":0},{"OBJECT_NAME":"KORONAS-FOTON","OBJECT_ID":"2009-003A","EPOCH":"2026-04-28T19:07:04.231200","MEAN_MOTION":15.44658368,"ECCENTRICITY":0.0009539,"INCLINATION":82.4315,"RA_OF_ASC_NODE":223.7323,"ARG_OF_PERICENTER":339.8519,"MEAN_ANOMALY":20.2351,"EPHEMERIS_TYPE":0,"CLASSIFICATION_TYPE":"U","NORAD_CAT_ID":33504,"ELEMENT_SET_NO":999,"REV_AT_EPOCH":95347,"BSTAR":0.00029073,"MEAN_MOTION_DOT":0.00013609,"MEAN_MOTION_DDOT":0},{"OBJECT_NAME":"CZ-2C R/B","OBJECT_ID":"2011-030B","EPOCH":"2026-04-28T20:49:02.457120","MEAN_MOTION":14.81362181,"ECCENTRICITY":0.0052166,"INCLINATION":97.8619,"RA_OF_ASC_NODE":75.1603,"ARG_OF_PERICENTER":185.4607,"MEAN_ANOMALY":229.0947,"EPHEMERIS_TYPE":0,"CLASSIFICATION_TYPE":"U","NORAD_CAT_ID":37731,"ELEMENT_SET_NO":999,"REV_AT_EPOCH":79752,"BSTAR":0.00014019,"MEAN_MOTION_DOT":1.066e-5,"MEAN_MOTION_DDOT":0},{"OBJECT_NAME":"H-2A R/B","OBJECT_ID":"2012-025E","EPOCH":"2026-04-28T20:21:42.752736","MEAN_MOTION":14.95453241,"ECCENTRICITY":0.0044919,"INCLINATION":98.4788,"RA_OF_ASC_NODE":89.9496,"ARG_OF_PERICENTER":147.2725,"MEAN_ANOMALY":213.1291,"EPHEMERIS_TYPE":0,"CLASSIFICATION_TYPE":"U","NORAD_CAT_ID":38341,"ELEMENT_SET_NO":999,"REV_AT_EPOCH":75571,"BSTAR":0.00023571,"MEAN_MOTION_DOT":2.59e-5,"MEAN_MOTION_DDOT":0},{"OBJECT_NAME":"SHIJIAN-16 (SJ-16)","OBJECT_ID":"2013-057A","EPOCH":"2026-04-28T21:43:45.652800","MEAN_MOTION":14.92484328,"ECCENTRICITY":0.0016333,"INCLINATION":74.9706,"RA_OF_ASC_NODE":90.0105,"ARG_OF_PERICENTER":344.7914,"MEAN_ANOMALY":15.278,"EPHEMERIS_TYPE":0,"CLASSIFICATION_TYPE":"U","NORAD_CAT_ID":39358,"ELEMENT_SET_NO":999,"REV_AT_EPOCH":67899,"BSTAR":0.000158,"MEAN_MOTION_DOT":1.596e-5,"MEAN_MOTION_DDOT":0},{"OBJECT_NAME":"SL-4 R/B","OBJECT_ID":"2014-021B","EPOCH":"2026-04-28T08:02:24.540864","MEAN_MOTION":15.40758497,"ECCENTRICITY":0.0092632,"INCLINATION":51.6055,"RA_OF_ASC_NODE":94.7742,"ARG_OF_PERICENTER":284.6433,"MEAN_ANOMALY":74.4296,"EPHEMERIS_TYPE":0,"CLASSIFICATION_TYPE":"U","NORAD_CAT_ID":39679,"ELEMENT_SET_NO":999,"REV_AT_EPOCH":66392,"BSTAR":0.00030964,"MEAN_MOTION_DOT":0.00014576,"MEAN_MOTION_DDOT":0},{"OBJECT_NAME":"ALOS-2","OBJECT_ID":"2014-029A","EPOCH":"2026-04-28T20:02:08.929248","MEAN_MOTION":14.79473653,"ECCENTRICITY":0.000169,"INCLINATION":97.9203,"RA_OF_ASC_NODE":216.7045,"ARG_OF_PERICENTER":86.958,"MEAN_ANOMALY":273.1825,"EPHEMERIS_TYPE":0,"CLASSIFICATION_TYPE":"U","NORAD_CAT_ID":39766,"ELEMENT_SET_NO":999,"REV_AT_EPOCH":64428,"BSTAR":0.00024801,"MEAN_MOTION_DOT":1.801e-5,"MEAN_MOTION_DDOT":0},{"OBJECT_NAME":"YAOGAN-29","OBJECT_ID":"2015-069A","EPOCH":"2026-04-28T20:35:24.965376","MEAN_MOTION":14.83044945,"ECCENTRICITY":0.0001931,"INCLINATION":98.0075,"RA_OF_ASC_NODE":147.4055,"ARG_OF_PERICENTER":133.7755,"MEAN_ANOMALY":226.3618,"EPHEMERIS_TYPE":0,"CLASSIFICATION_TYPE":"U","NORAD_CAT_ID":41038,"ELEMENT_SET_NO":999,"REV_AT_EPOCH":56331,"BSTAR":7.6215e-5,"MEAN_MOTION_DOT":5.66e-6,"MEAN_MOTION_DDOT":0},{"OBJECT_NAME":"ASTRO-H (HITOMI)","OBJECT_ID":"2016-012A","EPOCH":"2026-04-28T19:13:16.425984","MEAN_MOTION":15.10293883,"ECCENTRICITY":0.000937,"INCLINATION":31.0002,"RA_OF_ASC_NODE":33.0865,"ARG_OF_PERICENTER":116.5433,"MEAN_ANOMALY":243.6166,"EPHEMERIS_TYPE":0,"CLASSIFICATION_TYPE":"U","NORAD_CAT_ID":41337,"ELEMENT_SET_NO":999,"REV_AT_EPOCH":55981,"BSTAR":0.00020072,"MEAN_MOTION_DOT":3.467e-5,"MEAN_MOTION_DDOT":0},{"OBJECT_NAME":"HXMT (HUIYAN)","OBJECT_ID":"2017-034A","EPOCH":"2026-04-28T20:36:13.191264","MEAN_MOTION":15.1801719,"ECCENTRICITY":0.0031857,"INCLINATION":43.0129,"RA_OF_ASC_NODE":97.6178,"ARG_OF_PERICENTER":194.6947,"MEAN_ANOMALY":165.2978,"EPHEMERIS_TYPE":0,"CLASSIFICATION_TYPE":"U","NORAD_CAT_ID":42758,"ELEMENT_SET_NO":999,"REV_AT_EPOCH":49016,"BSTAR":0.00022332,"MEAN_MOTION_DOT":4.444e-5,"MEAN_MOTION_DDOT":0}]
